{"type": "FeatureCollection", "features": [ {"type": "Feature", "properties": {"norad_id": 42987, "name": "SKYSAT-C11", "group": "resource", "lat": -68.38120771511868, "lon": 157.45972808268095, "alt_km": 430.51139142931515, "timestamp": "2025-12-26T10:30:49.916904+00:00", "meta": {"OBJECT_NAME": "SKYSAT-C11", "OBJECT_ID": "2017-068A", "EPOCH": "2025-12-25T22:24:11.990304", "MEAN_MOTION": 15.48016298, "ECCENTRICITY": 0.0001155, "INCLINATION": 97.4151, "RA_OF_ASC_NODE": 137.7566, "ARG_OF_PERICENTER": 96.2263, "MEAN_ANOMALY": 263.9118, "EPHEMERIS_TYPE": 0, "CLASSIFICATION_TYPE": "U", "NORAD_CAT_ID": 42987, "ELEMENT_SET_NO": 999, "REV_AT_EPOCH": 45635, "BSTAR": 0.00044195, "MEAN_MOTION_DOT": 0.00023051, "MEAN_MOTION_DDOT": 0}, "tle": {"line1": "1 42987U 17068A   25359.93347211  .00023051  00000+0  44195-3 0  9992", "line2": "2 42987  97.4151 137.7566 0001155  96.2263 263.9118 15.48016298456351"}}, "geometry": {"type": "Point", "coordinates": [157.45972808268095, -68.38120771511868]}}, {"type": "Feature", "properties": {"norad_id": 42988, "name": "SKYSAT-C10", "group": "resource", "lat": -35.719717749901456, "lon": 136.7111247655831, "alt_km": 476.6716706248053, "timestamp": "2025-12-26T10:30:49.916915+00:00", "meta": {"OBJECT_NAME": "SKYSAT-C10", "OBJECT_ID": "2017-068B", "EPOCH": "2025-12-24T19:29:00.783168", "MEAN_MOTION": 15.32071049, "ECCENTRICITY": 0.00043105, "INCLINATION": 97.4272, "RA_OF_ASC_NODE": 129.6977, "ARG_OF_PERICENTER": 75.127, "MEAN_ANOMALY": 285.0448, "EPHEMERIS_TYPE": 0, "CLASSIFICATION_TYPE": "U", "NORAD_CAT_ID": 42988, "ELEMENT_SET_NO": 999, "REV_AT_EPOCH": 45564, "BSTAR": 0.00040464637, "MEAN_MOTION_DOT": 0.00012461, "MEAN_MOTION_DDOT": 0}, "tle": {"line1": "1 42988U 17068B   25358.81181462  .00012461  00000+0  40465-3 0  9992", "line2": "2 42988  97.4272 129.6977 0004310  75.1270 285.0448 15.32071049455642"}}, "geometry": {"type": "Point", "coordinates": [136.7111247655831, -35.719717749901456]}}, {"type": "Feature", "properties": {"norad_id": 42989, "name": "SKYSAT-C9", "group": "resource", "lat": 11.274323169077105, "lon": 129.31439099636341, "alt_km": 452.38302811271114, "timestamp": "2025-12-26T10:30:49.916925+00:00", "meta": {"OBJECT_NAME": "SKYSAT-C9", "OBJECT_ID": "2017-068C", "EPOCH": "2025-12-25T21:57:34.809408", "MEAN_MOTION": 15.36381631, "ECCENTRICITY": 0.0010212, "INCLINATION": 97.4194, "RA_OF_ASC_NODE": 130.2756, "ARG_OF_PERICENTER": 45.4149, "MEAN_ANOMALY": 314.7927, "EPHEMERIS_TYPE": 0, "CLASSIFICATION_TYPE": "U", "NORAD_CAT_ID": 42989, "ELEMENT_SET_NO": 999, "REV_AT_EPOCH": 45610, "BSTAR": 0.0003925, "MEAN_MOTION_DOT": 0.00013877, "MEAN_MOTION_DDOT": 0}, "tle": {"line1": "1 42989U 17068C   25359.91498622  .00013877  00000+0  39250-3 0  9996", "line2": "2 42989  97.4194 130.2756 0010212  45.4149 314.7927 15.36381631456101"}}, "geometry": {"type": "Point", "coordinates": [129.31439099636341, 11.274323169077105]}}, {"type": "Feature", "properties": {"norad_id": 42990, "name": "SKYSAT-C8", "group": "resource", "lat": -7.256317981938648, "lon": -50.45130072280404, "alt_km": 470.0385182579512, "timestamp": "2025-12-26T10:30:49.916935+00:00", "meta": {"OBJECT_NAME": "SKYSAT-C8", "OBJECT_ID": "2017-068D", "EPOCH": "2025-12-25T21:10:08.555808", "MEAN_MOTION": 15.33208945, "ECCENTRICITY": 9.45e-05, "INCLINATION": 97.4287, "RA_OF_ASC_NODE": 129.942, "ARG_OF_PERICENTER": 263.9401, "MEAN_ANOMALY": 96.1733, "EPHEMERIS_TYPE": 0, "CLASSIFICATION_TYPE": "U", "NORAD_CAT_ID": 42990, "ELEMENT_SET_NO": 999, "REV_AT_EPOCH": 45572, "BSTAR": 0.00035524, "MEAN_MOTION_DOT": 0.00011324, "MEAN_MOTION_DDOT": 0}, "tle": {"line1": "1 42990U 17068D   25359.88204347  .00011324  00000+0  35524-3 0  9998", "line2": "2 42990  97.4287 129.9420 0000945 263.9401  96.1733 15.33208945455725"}}, "geometry": {"type": "Point", "coordinates": [-50.45130072280404, -7.256317981938648]}}, {"type": "Feature", "properties": {"norad_id": 42991, "name": "SKYSAT-C7", "group": "resource", "lat": 12.84847648935311, "lon": 129.82510808514087, "alt_km": 464.6257217362336, "timestamp": "2025-12-26T10:30:49.916946+00:00", "meta": {"OBJECT_NAME": "SKYSAT-C7", "OBJECT_ID": "2017-068E", "EPOCH": "2025-12-25T21:55:18.596352", "MEAN_MOTION": 15.32604229, "ECCENTRICITY": 0.0006816, "INCLINATION": 97.4296, "RA_OF_ASC_NODE": 131.004, "ARG_OF_PERICENTER": 14.8643, "MEAN_ANOMALY": 345.2798, "EPHEMERIS_TYPE": 0, "CLASSIFICATION_TYPE": "U", "NORAD_CAT_ID": 42991, "ELEMENT_SET_NO": 999, "REV_AT_EPOCH": 45579, "BSTAR": 0.00037042, "MEAN_MOTION_DOT": 0.00011596, "MEAN_MOTION_DDOT": 0}, "tle": {"line1": "1 42991U 17068E   25359.91340968  .00011596  00000+0  37042-3 0  9991", "line2": "2 42991  97.4296 131.0040 0006816  14.8643 345.2798 15.32604229455792"}}, "geometry": {"type": "Point", "coordinates": [129.82510808514087, 12.84847648935311]}}, {"type": "Feature", "properties": {"norad_id": 42992, "name": "SKYSAT-C6", "group": "resource", "lat": 82.43318673732423, "lon": 52.61470624799433, "alt_km": 460.7247946563839, "timestamp": "2025-12-26T10:30:49.916956+00:00", "meta": {"OBJECT_NAME": "SKYSAT-C6", "OBJECT_ID": "2017-068F", "EPOCH": "2025-12-25T20:01:06.090528", "MEAN_MOTION": 15.31757076, "ECCENTRICITY": 0.00047376, "INCLINATION": 97.4326, "RA_OF_ASC_NODE": 131.3522, "ARG_OF_PERICENTER": 46.8398, "MEAN_ANOMALY": 313.3239, "EPHEMERIS_TYPE": 0, "CLASSIFICATION_TYPE": "U", "NORAD_CAT_ID": 42992, "ELEMENT_SET_NO": 999, "REV_AT_EPOCH": 45576, "BSTAR": 0.00037471515, "MEAN_MOTION_DOT": 0.0001142, "MEAN_MOTION_DDOT": 0}, "tle": {"line1": "1 42992U 17068F   25359.83409827  .00011420  00000+0  37472-3 0  9996", "line2": "2 42992  97.4326 131.3522 0004737  46.8398 313.3239 15.31757076455768"}}, "geometry": {"type": "Point", "coordinates": [52.61470624799433, 82.43318673732423]}}, {"type": "Feature", "properties": {"norad_id": 43111, "name": "CARTOSAT-2F", "group": "resource", "lat": -53.726641134586586, "lon": 68.09487901267772, "alt_km": 516.1525391256264, "timestamp": "2025-12-26T10:30:49.916966+00:00", "meta": {"OBJECT_NAME": "CARTOSAT-2F", "OBJECT_ID": "2018-004A", "EPOCH": "2025-12-26T04:25:48.114624", "MEAN_MOTION": 15.19253079, "ECCENTRICITY": 0.0001522, "INCLINATION": 97.4294, "RA_OF_ASC_NODE": 57.6031, "ARG_OF_PERICENTER": 112.2672, "MEAN_ANOMALY": 247.8724, "EPHEMERIS_TYPE": 0, "CLASSIFICATION_TYPE": "U", "NORAD_CAT_ID": 43111, "ELEMENT_SET_NO": 999, "REV_AT_EPOCH": 44106, "BSTAR": 0.0002401, "MEAN_MOTION_DOT": 4.993e-05, "MEAN_MOTION_DDOT": 0}, "tle": {"line1": "1 43111U 18004A   25360.18458466  .00004993  00000+0  24010-3 0  9995", "line2": "2 43111  97.4294  57.6031 0001522 112.2672 247.8724 15.19253079441061"}}, "geometry": {"type": "Point", "coordinates": [68.09487901267772, -53.726641134586586]}}, {"type": "Feature", "properties": {"norad_id": 43259, "name": "GAOFEN-1 02", "group": "resource", "lat": 54.97173703943639, "lon": -110.0783575412366, "alt_km": 633.9680815562124, "timestamp": "2025-12-26T10:30:49.916976+00:00", "meta": {"OBJECT_NAME": "GAOFEN-1 02", "OBJECT_ID": "2018-031A", "EPOCH": "2025-12-26T05:04:26.232672", "MEAN_MOTION": 14.76444265, "ECCENTRICITY": 0.0002723, "INCLINATION": 98.0784, "RA_OF_ASC_NODE": 58.0042, "ARG_OF_PERICENTER": 168.4522, "MEAN_ANOMALY": 191.675, "EPHEMERIS_TYPE": 0, "CLASSIFICATION_TYPE": "U", "NORAD_CAT_ID": 43259, "ELEMENT_SET_NO": 999, "REV_AT_EPOCH": 41717, "BSTAR": 0.00021656, "MEAN_MOTION_DOT": 1.455e-05, "MEAN_MOTION_DDOT": 0}, "tle": {"line1": "1 43259U 18031A   25360.21141473  .00001455  00000+0  21656-3 0  9992", "line2": "2 43259  98.0784  58.0042 0002723 168.4522 191.6750 14.76444265417174"}}, "geometry": {"type": "Point", "coordinates": [-110.0783575412366, 54.97173703943639]}}, {"type": "Feature", "properties": {"norad_id": 43260, "name": "GAOFEN-1 03", "group": "resource", "lat": -59.3930169891701, "lon": -135.78461666685828, "alt_km": 646.628937823959, "timestamp": "2025-12-26T10:30:49.916986+00:00", "meta": {"OBJECT_NAME": "GAOFEN-1 03", "OBJECT_ID": "2018-031B", "EPOCH": "2025-12-26T06:10:31.736928", "MEAN_MOTION": 14.76426035, "ECCENTRICITY": 0.0001645, "INCLINATION": 98.078, "RA_OF_ASC_NODE": 57.9261, "ARG_OF_PERICENTER": 252.6735, "MEAN_ANOMALY": 107.4295, "EPHEMERIS_TYPE": 0, "CLASSIFICATION_TYPE": "U", "NORAD_CAT_ID": 43260, "ELEMENT_SET_NO": 999, "REV_AT_EPOCH": 41717, "BSTAR": 0.00016522, "MEAN_MOTION_DOT": 1.097e-05, "MEAN_MOTION_DDOT": 0}, "tle": {"line1": "1 43260U 18031B   25360.25731177  .00001097  00000+0  16522-3 0  9992", "line2": "2 43260  98.0780  57.9261 0001645 252.6735 107.4295 14.76426035417171"}}, "geometry": {"type": "Point", "coordinates": [-135.78461666685828, -59.3930169891701]}}, {"type": "Feature", "properties": {"norad_id": 43262, "name": "GAOFEN-1 04", "group": "resource", "lat": 9.026833293373539, "lon": 56.98417989188362, "alt_km": 642.179091199584, "timestamp": "2025-12-26T10:30:49.916996+00:00", "meta": {"OBJECT_NAME": "GAOFEN-1 04", "OBJECT_ID": "2018-031D", "EPOCH": "2025-12-26T03:57:59.755680", "MEAN_MOTION": 14.76432792, "ECCENTRICITY": 4.85e-05, "INCLINATION": 98.0785, "RA_OF_ASC_NODE": 58.0043, "ARG_OF_PERICENTER": 66.8993, "MEAN_ANOMALY": 293.2268, "EPHEMERIS_TYPE": 0, "CLASSIFICATION_TYPE": "U", "NORAD_CAT_ID": 43262, "ELEMENT_SET_NO": 999, "REV_AT_EPOCH": 41715, "BSTAR": 0.00012019, "MEAN_MOTION_DOT": 7.84e-06, "MEAN_MOTION_DDOT": 0}, "tle": {"line1": "1 43262U 18031D   25360.16527495  .00000784  00000+0  12019-3 0  9999", "line2": "2 43262  98.0785  58.0043 0000485  66.8993 293.2268 14.76432792417159"}}, "geometry": {"type": "Point", "coordinates": [56.98417989188362, 9.026833293373539]}}]}